SEEDS II (CO-66)        
1 32791U 08021J   26068.92109284  .00023758  00000+0  84213-3 0  9995
2 32791  97.7519  62.3611 0001448 359.2618   0.8619 15.29097235972108
STARLINK-32253          
1 60733U 24152P   26068.83190749  .00016742  00000+0  57572-3 0  9994
2 60733  53.1576 267.6861 0000667 105.9856 254.1218 15.30221532 86828
